[{"OBJECT_NAME":"AISTECHSAT 2","OBJECT_ID":"2018-099L","EPOCH":"2026-03-09T16:20:03.228288","MEAN_MOTION":15.14339272,"ECCENTRICITY":0.00032581,"INCLINATION":97.4431,"RA_OF_ASC_NODE":118.9026,"ARG_OF_PERICENTER":288.6059,"MEAN_ANOMALY":71.4819,"EPHEMERIS_TYPE":0,"CLASSIFICATION_TYPE":"U","NORAD_CAT_ID":43768,"ELEMENT_SET_NO":999,"REV_AT_EPOCH":39721,"BSTAR":0.00042226412,"MEAN_MOTION_DOT":7.677e-5,"MEAN_MOTION_DDOT":0},{"OBJECT_NAME":"STARLINK-5762","OBJECT_ID":"2023-020X","EPOCH":"2026-03-09T22:00:01.999584","MEAN_MOTION":15.1288855,"ECCENTRICITY":0.00011718,"INCLINATION":42.9999,"RA_OF_ASC_NODE":2.7146,"ARG_OF_PERICENTER":226.8204,"MEAN_ANOMALY":55.9647,"EPHEMERIS_TYPE":0,"CLASSIFICATION_TYPE":"U","NORAD_CAT_ID":55590,"ELEMENT_SET_NO":999,"REV_AT_EPOCH":577,"BSTAR":0.0010551385,"MEAN_MOTION_DOT":0.00018724,"MEAN_MOTION_DDOT":0}]
